[{"OBJECT_NAME":"ONEWEB-0292","OBJECT_ID":"2021-083A","EPOCH":"2026-03-09T18:05:27.590784","MEAN_MOTION":13.13472103,"ECCENTRICITY":0.00015434,"INCLINATION":87.9027,"RA_OF_ASC_NODE":340.0294,"ARG_OF_PERICENTER":73.1666,"MEAN_ANOMALY":286.9633,"EPHEMERIS_TYPE":0,"CLASSIFICATION_TYPE":"U","NORAD_CAT_ID":49186,"ELEMENT_SET_NO":999,"REV_AT_EPOCH":21787,"BSTAR":0.00047041726,"MEAN_MOTION_DOT":1.85e-6,"MEAN_MOTION_DDOT":0},{"OBJECT_NAME":"CZ-6A DEB","OBJECT_ID":"2022-151F","EPOCH":"2026-03-09T13:42:40.593888","MEAN_MOTION":13.47439274,"ECCENTRICITY":0.0351009,"INCLINATION":98.5868,"RA_OF_ASC_NODE":286.14,"ARG_OF_PERICENTER":224.1964,"MEAN_ANOMALY":133.0639,"EPHEMERIS_TYPE":0,"CLASSIFICATION_TYPE":"U","NORAD_CAT_ID":54264,"ELEMENT_SET_NO":999,"REV_AT_EPOCH":16332,"BSTAR":0.00025524,"MEAN_MOTION_DOT":1.9e-6,"MEAN_MOTION_DDOT":0}]
